{"fetched_at":"2026-07-15T06:35:50.422Z","source":"https://celestrak.org/NORAD/elements/gp.php?GROUP=stations&FORMAT=JSON","constellation":"tiangong","records":[{"OBJECT_NAME":"CSS (TIANHE)","OBJECT_ID":"2021-035A","EPOCH":"2026-07-14T21:28:01.171200","CLASSIFICATION_TYPE":"U","MEAN_MOTION":15.58084991,"ECCENTRICITY":0.00022567,"INCLINATION":41.4689,"RA_OF_ASC_NODE":153.6564,"ARG_OF_PERICENTER":302.1088,"MEAN_ANOMALY":57.953,"EPHEMERIS_TYPE":0,"NORAD_CAT_ID":48274,"ELEMENT_SET_NO":999,"REV_AT_EPOCH":29749,"BSTAR":0.000020034416,"MEAN_MOTION_DOT":0.0000122,"MEAN_MOTION_DDOT":0}]}
